DELTA 2 R/B(1)          
1 20453U 90008B   26052.00012549  .00061660  00000+0  78405-3 0  9992
2 20453  35.6040 284.1803 0088870 103.0443 258.0231 15.53535456923531
COSMOS 2058             
1 20465U 90010A   26052.49224217  .00003977  00000+0  23515-3 0  9997
2 20465  82.4668  63.3850 0010602  38.2884 321.9097 15.11162641939796
SL-14 R/B               
1 20466U 90010B   26052.63454198  .00000331  00000+0  37217-4 0  9993
2 20466  82.5004 282.4725 0019740 357.3222   2.7884 14.83553895926102
SL-14 R/B               
1 20511U 90018B   26052.50187289  .00000403  00000+0  47618-4 0  9998
2 20511  82.5179 238.2225 0017186 141.4900 218.7545 14.82125377920181
HST                     
1 20580U 90037B   26052.56349540  .00007071  00000+0  23461-3 0  9998
2 20580  28.4686 149.9853 0001090 298.8097  61.2389 15.29203976770842
SL-16 R/B               
1 20625U 90046B   26052.22602582  .00000161  00000+0  10782-3 0  9994
2 20625  71.0018 332.4894 0015564 322.3236  37.6795 14.15014255846068
COSMOS 2084             
1 20663U 90055A   26052.38336158  .00002619  00000+0  19435-3 0  9990
2 20663  62.7909  31.1865 0019578 186.3248 173.7609 15.05535348933869
SL-6 R/B(2)             
1 20666U 90055D   26052.14433580  .00001886  00000+0  15156-3 0  9995
2 20666  62.7837 310.1134 0022274 342.6836  17.3501 15.03508538935706
SL-8 R/B                
1 20775U 90078B   26052.57962716  .00013348  00000+0  39137-3 0  9997
2 20775  82.8996 265.7942 0365631  68.0301 295.9346 14.88483653806903
SL-8 R/B                
1 21088U 91006B   26052.50098855  .00000039  00000+0  23867-4 0  9991
2 21088  82.9454 182.0803 0023721  81.6832 349.3361 13.77492473761840
OKEAN-3                 
1 21397U 91039A   26052.32038273  .00003681  00000+0  25921-3 0  9996
2 21397  82.5210 352.6977 0015249  31.8075 328.4070 15.04676047862578
COSMOS 2151             
1 21422U 91042A   26052.60735909  .00001619  00000+0  12767-3 0  9993
2 21422  82.4944  99.1925 0014030 111.7831 248.4888 15.00038382860780
