CCSDS_OMM_VERS = 2.0
CREATION_DATE  = 
ORIGINATOR     = 

OBJECT_NAME    = DELTA 2 R/B(1)
OBJECT_ID      = 1990-008B
CENTER_NAME    = EARTH
REF_FRAME      = TEME
TIME_SYSTEM    = UTC
MEAN_ELEMENT_THEORY = SGP/SGP4

EPOCH          = 2026-02-21T00:00:10.842336
MEAN_MOTION    = 15.53535456
ECCENTRICITY   = .00888706
INCLINATION    = 35.6040
RA_OF_ASC_NODE = 284.1803
ARG_OF_PERICENTER = 103.0443
MEAN_ANOMALY   = 258.0231

EPHEMERIS_TYPE = 0
CLASSIFICATION_TYPE = U
NORAD_CAT_ID   = 20453
ELEMENT_SET_NO = 999
REV_AT_EPOCH   = 92353
BSTAR          = .78404539E-3
MEAN_MOTION_DOT = .6166E-3
MEAN_MOTION_DDOT = 0

CCSDS_OMM_VERS = 2.0
CREATION_DATE  = 
ORIGINATOR     = 

OBJECT_NAME    = COSMOS 2058
OBJECT_ID      = 1990-010A
CENTER_NAME    = EARTH
REF_FRAME      = TEME
TIME_SYSTEM    = UTC
MEAN_ELEMENT_THEORY = SGP/SGP4

EPOCH          = 2026-02-21T11:48:49.723488
MEAN_MOTION    = 15.11162641
ECCENTRICITY   = .00106025
INCLINATION    = 82.4668
RA_OF_ASC_NODE = 63.3850
ARG_OF_PERICENTER = 38.2884
MEAN_ANOMALY   = 321.9097

EPHEMERIS_TYPE = 0
CLASSIFICATION_TYPE = U
NORAD_CAT_ID   = 20465
ELEMENT_SET_NO = 999
REV_AT_EPOCH   = 93979
BSTAR          = .2351546E-3
MEAN_MOTION_DOT = .3977E-4
MEAN_MOTION_DDOT = 0

CCSDS_OMM_VERS = 2.0
CREATION_DATE  = 
ORIGINATOR     = 

OBJECT_NAME    = SL-14 R/B
OBJECT_ID      = 1990-010B
CENTER_NAME    = EARTH
REF_FRAME      = TEME
TIME_SYSTEM    = UTC
MEAN_ELEMENT_THEORY = SGP/SGP4

EPOCH          = 2026-02-21T15:13:44.427072
MEAN_MOTION    = 14.83553895
ECCENTRICITY   = .00197402
INCLINATION    = 82.5004
RA_OF_ASC_NODE = 282.4725
ARG_OF_PERICENTER = 357.3222
MEAN_ANOMALY   = 2.7884

EPHEMERIS_TYPE = 0
CLASSIFICATION_TYPE = U
NORAD_CAT_ID   = 20466
ELEMENT_SET_NO = 999
REV_AT_EPOCH   = 92610
BSTAR          = .37216768E-4
MEAN_MOTION_DOT = .331E-5
MEAN_MOTION_DDOT = 0

CCSDS_OMM_VERS = 2.0
CREATION_DATE  = 
ORIGINATOR     = 

OBJECT_NAME    = SL-14 R/B
OBJECT_ID      = 1990-018B
CENTER_NAME    = EARTH
REF_FRAME      = TEME
TIME_SYSTEM    = UTC
MEAN_ELEMENT_THEORY = SGP/SGP4

EPOCH          = 2026-02-21T12:02:41.817696
MEAN_MOTION    = 14.82125377
ECCENTRICITY   = .00171868
INCLINATION    = 82.5179
RA_OF_ASC_NODE = 238.2225
ARG_OF_PERICENTER = 141.4900
MEAN_ANOMALY   = 218.7545

EPHEMERIS_TYPE = 0
CLASSIFICATION_TYPE = U
NORAD_CAT_ID   = 20511
ELEMENT_SET_NO = 999
REV_AT_EPOCH   = 92018
BSTAR          = .47618433E-4
MEAN_MOTION_DOT = .403E-5
MEAN_MOTION_DDOT = 0

CCSDS_OMM_VERS = 2.0
CREATION_DATE  = 
ORIGINATOR     = 

OBJECT_NAME    = HST
OBJECT_ID      = 1990-037B
CENTER_NAME    = EARTH
REF_FRAME      = TEME
TIME_SYSTEM    = UTC
MEAN_ELEMENT_THEORY = SGP/SGP4

EPOCH          = 2026-02-21T13:31:26.002560
MEAN_MOTION    = 15.29203976
ECCENTRICITY   = .00010904
INCLINATION    = 28.4686
RA_OF_ASC_NODE = 149.9853
ARG_OF_PERICENTER = 298.8097
MEAN_ANOMALY   = 61.2389

EPHEMERIS_TYPE = 0
CLASSIFICATION_TYPE = U
NORAD_CAT_ID   = 20580
ELEMENT_SET_NO = 999
REV_AT_EPOCH   = 77084
BSTAR          = .2346081E-3
MEAN_MOTION_DOT = .7071E-4
MEAN_MOTION_DDOT = 0

CCSDS_OMM_VERS = 2.0
CREATION_DATE  = 
ORIGINATOR     = 

OBJECT_NAME    = SL-16 R/B
OBJECT_ID      = 1990-046B
CENTER_NAME    = EARTH
REF_FRAME      = TEME
TIME_SYSTEM    = UTC
MEAN_ELEMENT_THEORY = SGP/SGP4

EPOCH          = 2026-02-21T05:25:28.630848
MEAN_MOTION    = 14.15014255
ECCENTRICITY   = .0015564
INCLINATION    = 71.0018
RA_OF_ASC_NODE = 332.4894
ARG_OF_PERICENTER = 322.3236
MEAN_ANOMALY   = 37.6795

EPHEMERIS_TYPE = 0
CLASSIFICATION_TYPE = U
NORAD_CAT_ID   = 20625
ELEMENT_SET_NO = 999
REV_AT_EPOCH   = 84606
BSTAR          = .10782E-3
MEAN_MOTION_DOT = .161E-5
MEAN_MOTION_DDOT = 0

CCSDS_OMM_VERS = 2.0
CREATION_DATE  = 
ORIGINATOR     = 

OBJECT_NAME    = COSMOS 2084
OBJECT_ID      = 1990-055A
CENTER_NAME    = EARTH
REF_FRAME      = TEME
TIME_SYSTEM    = UTC
MEAN_ELEMENT_THEORY = SGP/SGP4

EPOCH          = 2026-02-21T09:12:02.440512
MEAN_MOTION    = 15.05535348
ECCENTRICITY   = .00195782
INCLINATION    = 62.7909
RA_OF_ASC_NODE = 31.1865
ARG_OF_PERICENTER = 186.3248
MEAN_ANOMALY   = 173.7609

EPHEMERIS_TYPE = 0
CLASSIFICATION_TYPE = U
NORAD_CAT_ID   = 20663
ELEMENT_SET_NO = 999
REV_AT_EPOCH   = 93386
BSTAR          = .19434641E-3
MEAN_MOTION_DOT = .2619E-4
MEAN_MOTION_DDOT = 0

CCSDS_OMM_VERS = 2.0
CREATION_DATE  = 
ORIGINATOR     = 

OBJECT_NAME    = SL-6 R/B(2)
OBJECT_ID      = 1990-055D
CENTER_NAME    = EARTH
REF_FRAME      = TEME
TIME_SYSTEM    = UTC
MEAN_ELEMENT_THEORY = SGP/SGP4

EPOCH          = 2026-02-21T03:27:50.613120
MEAN_MOTION    = 15.03508538
ECCENTRICITY   = .00222743
INCLINATION    = 62.7837
RA_OF_ASC_NODE = 310.1134
ARG_OF_PERICENTER = 342.6836
MEAN_ANOMALY   = 17.3501

EPHEMERIS_TYPE = 0
CLASSIFICATION_TYPE = U
NORAD_CAT_ID   = 20666
ELEMENT_SET_NO = 999
REV_AT_EPOCH   = 93570
BSTAR          = .15155517E-3
MEAN_MOTION_DOT = .1886E-4
MEAN_MOTION_DDOT = 0

CCSDS_OMM_VERS = 2.0
CREATION_DATE  = 
ORIGINATOR     = 

OBJECT_NAME    = SL-8 R/B
OBJECT_ID      = 1990-078B
CENTER_NAME    = EARTH
REF_FRAME      = TEME
TIME_SYSTEM    = UTC
MEAN_ELEMENT_THEORY = SGP/SGP4

EPOCH          = 2026-02-21T13:54:39.786624
MEAN_MOTION    = 14.88483653
ECCENTRICITY   = .03656311
INCLINATION    = 82.8996
RA_OF_ASC_NODE = 265.7942
ARG_OF_PERICENTER = 68.0301
MEAN_ANOMALY   = 295.9346

EPHEMERIS_TYPE = 0
CLASSIFICATION_TYPE = U
NORAD_CAT_ID   = 20775
ELEMENT_SET_NO = 999
REV_AT_EPOCH   = 80690
BSTAR          = .39137181E-3
MEAN_MOTION_DOT = .13348E-3
MEAN_MOTION_DDOT = 0

CCSDS_OMM_VERS = 2.0
CREATION_DATE  = 
ORIGINATOR     = 

OBJECT_NAME    = SL-8 R/B
OBJECT_ID      = 1991-006B
CENTER_NAME    = EARTH
REF_FRAME      = TEME
TIME_SYSTEM    = UTC
MEAN_ELEMENT_THEORY = SGP/SGP4

EPOCH          = 2026-02-21T12:01:25.410720
MEAN_MOTION    = 13.77492473
ECCENTRICITY   = .00237213
INCLINATION    = 82.9454
RA_OF_ASC_NODE = 182.0803
ARG_OF_PERICENTER = 81.6832
MEAN_ANOMALY   = 349.3361

EPHEMERIS_TYPE = 0
CLASSIFICATION_TYPE = U
NORAD_CAT_ID   = 21088
ELEMENT_SET_NO = 999
REV_AT_EPOCH   = 76184
BSTAR          = .23866807E-4
MEAN_MOTION_DOT = .39E-6
MEAN_MOTION_DDOT = 0

CCSDS_OMM_VERS = 2.0
CREATION_DATE  = 
ORIGINATOR     = 

OBJECT_NAME    = OKEAN-3
OBJECT_ID      = 1991-039A
CENTER_NAME    = EARTH
REF_FRAME      = TEME
TIME_SYSTEM    = UTC
MEAN_ELEMENT_THEORY = SGP/SGP4

EPOCH          = 2026-02-21T07:41:21.067872
MEAN_MOTION    = 15.04676047
ECCENTRICITY   = .00152493
INCLINATION    = 82.5210
RA_OF_ASC_NODE = 352.6977
ARG_OF_PERICENTER = 31.8075
MEAN_ANOMALY   = 328.4070

EPHEMERIS_TYPE = 0
CLASSIFICATION_TYPE = U
NORAD_CAT_ID   = 21397
ELEMENT_SET_NO = 999
REV_AT_EPOCH   = 86257
BSTAR          = .25920504E-3
MEAN_MOTION_DOT = .3681E-4
MEAN_MOTION_DDOT = 0

CCSDS_OMM_VERS = 2.0
CREATION_DATE  = 
ORIGINATOR     = 

OBJECT_NAME    = COSMOS 2151
OBJECT_ID      = 1991-042A
CENTER_NAME    = EARTH
REF_FRAME      = TEME
TIME_SYSTEM    = UTC
MEAN_ELEMENT_THEORY = SGP/SGP4

EPOCH          = 2026-02-21T14:34:35.825376
MEAN_MOTION    = 15.00038382
ECCENTRICITY   = .00140309
INCLINATION    = 82.4944
RA_OF_ASC_NODE = 99.1925
ARG_OF_PERICENTER = 111.7831
MEAN_ANOMALY   = 248.4888

EPHEMERIS_TYPE = 0
CLASSIFICATION_TYPE = U
NORAD_CAT_ID   = 21422
ELEMENT_SET_NO = 999
REV_AT_EPOCH   = 86078
BSTAR          = .12766635E-3
MEAN_MOTION_DOT = .1619E-4
MEAN_MOTION_DDOT = 0

